{"type": "FeatureCollection", "features": [{"type": "Feature", "properties": {"norad_id": 28890, "name": "BEIJING 1", "group": "dmc", "lat": 62.915919381459304, "lon": 96.19690618950645, "alt_km": 674.596320652563, "timestamp": "2025-12-11T05:00:25.977699+00:00", "meta": {"OBJECT_NAME": "BEIJING 1", "OBJECT_ID": "2005-043A", "EPOCH": "2025-12-10T22:09:02.856672", "MEAN_MOTION": 14.63363206, "ECCENTRICITY": 0.00151923, "INCLINATION": 98.2655, "RA_OF_ASC_NODE": 112.4255, "ARG_OF_PERICENTER": 146.5897, "MEAN_ANOMALY": 213.6266, "EPHEMERIS_TYPE": 0, "CLASSIFICATION_TYPE": "U", "NORAD_CAT_ID": 28890, "ELEMENT_SET_NO": 999, "REV_AT_EPOCH": 7311, "BSTAR": 0.00013388847, "MEAN_MOTION_DOT": 6.44e-06, "MEAN_MOTION_DDOT": 0}, "tle": {"line1": "1 28890U 05043A   25344.92294973  .00000644  00000+0  13389-3 0  9992", "line2": "2 28890  98.2655 112.4255 0015192 146.5897 213.6266 14.63363206 73114"}}, "geometry": {"type": "Point", "coordinates": [96.19690618950645, 62.915919381459304]}}, {"type": "Feature", "properties": {"norad_id": 33320, "name": "HUANJING 1A (HJ-1A)", "group": "dmc", "lat": -18.567341171922987, "lon": -23.83958173037799, "alt_km": 616.1642287088707, "timestamp": "2025-12-11T05:00:25.977723+00:00", "meta": {"OBJECT_NAME": "HUANJING 1A (HJ-1A)", "OBJECT_ID": "2008-041A", "EPOCH": "2025-12-10T22:36:56.315808", "MEAN_MOTION": 14.83388119, "ECCENTRICITY": 0.00203303, "INCLINATION": 97.6545, "RA_OF_ASC_NODE": 333.316, "ARG_OF_PERICENTER": 40.1729, "MEAN_ANOMALY": 320.0984, "EPHEMERIS_TYPE": 0, "CLASSIFICATION_TYPE": "U", "NORAD_CAT_ID": 33320, "ELEMENT_SET_NO": 999, "REV_AT_EPOCH": 93049, "BSTAR": 0.00044796509, "MEAN_MOTION_DOT": 3.637e-05, "MEAN_MOTION_DDOT": 0}, "tle": {"line1": "1 33320U 08041A   25344.94231847  .00003637  00000+0  44797-3 0  9992", "line2": "2 33320  97.6545 333.3160 0020330  40.1729 320.0984 14.83388119930496"}}, "geometry": {"type": "Point", "coordinates": [-23.83958173037799, -18.567341171922987]}}, {"type": "Feature", "properties": {"norad_id": 33321, "name": "HUANJING 1B (HJ-1B)", "group": "dmc", "lat": -26.045614978858836, "lon": 153.51026774776366, "alt_km": 641.7479950767656, "timestamp": "2025-12-11T05:00:25.977738+00:00", "meta": {"OBJECT_NAME": "HUANJING 1B (HJ-1B)", "OBJECT_ID": "2008-041B", "EPOCH": "2025-12-10T23:13:30.475776", "MEAN_MOTION": 14.8281293, "ECCENTRICITY": 0.00382665, "INCLINATION": 97.6403, "RA_OF_ASC_NODE": 337.0415, "ARG_OF_PERICENTER": 81.2341, "MEAN_ANOMALY": 279.3204, "EPHEMERIS_TYPE": 0, "CLASSIFICATION_TYPE": "U", "NORAD_CAT_ID": 33321, "ELEMENT_SET_NO": 999, "REV_AT_EPOCH": 93051, "BSTAR": 0.00020007932, "MEAN_MOTION_DOT": 1.588e-05, "MEAN_MOTION_DDOT": 0}, "tle": {"line1": "1 33321U 08041B   25344.96771384  .00001588  00000+0  20008-3 0  9992", "line2": "2 33321  97.6403 337.0415 0038266  81.2341 279.3204 14.82812930930513"}}, "geometry": {"type": "Point", "coordinates": [153.51026774776366, -26.045614978858836]}}, {"type": "Feature", "properties": {"norad_id": 33446, "name": "YAOGAN-4", "group": "dmc", "lat": 60.686507336501215, "lon": 109.6742739694017, "alt_km": 623.2919249632705, "timestamp": "2025-12-11T05:00:25.977750+00:00", "meta": {"OBJECT_NAME": "YAOGAN-4", "OBJECT_ID": "2008-061A", "EPOCH": "2025-12-10T18:45:27.285984", "MEAN_MOTION": 14.82672885, "ECCENTRICITY": 0.00137394, "INCLINATION": 97.9179, "RA_OF_ASC_NODE": 274.9001, "ARG_OF_PERICENTER": 330.1294, "MEAN_ANOMALY": 29.9134, "EPHEMERIS_TYPE": 0, "CLASSIFICATION_TYPE": "U", "NORAD_CAT_ID": 33446, "ELEMENT_SET_NO": 999, "REV_AT_EPOCH": 91774, "BSTAR": 0.00030466827, "MEAN_MOTION_DOT": 2.407e-05, "MEAN_MOTION_DDOT": 0}, "tle": {"line1": "1 33446U 08061A   25344.78156581  .00002407  00000+0  30467-3 0  9999", "line2": "2 33446  97.9179 274.9001 0013739 330.1294  29.9134 14.82672885917749"}}, "geometry": {"type": "Point", "coordinates": [109.6742739694017, 60.686507336501215]}}, {"type": "Feature", "properties": {"norad_id": 35681, "name": "DEIMOS-1", "group": "dmc", "lat": -68.15082971075775, "lon": 165.64338645419684, "alt_km": 654.2691029753714, "timestamp": "2025-12-11T05:00:25.977760+00:00", "meta": {"OBJECT_NAME": "DEIMOS-1", "OBJECT_ID": "2009-041A", "EPOCH": "2025-12-10T21:10:51.958848", "MEAN_MOTION": 14.74947467, "ECCENTRICITY": 0.00027455, "INCLINATION": 97.715, "RA_OF_ASC_NODE": 145.5721, "ARG_OF_PERICENTER": 82.3795, "MEAN_ANOMALY": 277.7726, "EPHEMERIS_TYPE": 0, "CLASSIFICATION_TYPE": "U", "NORAD_CAT_ID": 35681, "ELEMENT_SET_NO": 999, "REV_AT_EPOCH": 87912, "BSTAR": 0.00015678571, "MEAN_MOTION_DOT": 1.006e-05, "MEAN_MOTION_DDOT": 0}, "tle": {"line1": "1 35681U 09041A   25344.88254582  .00001006  00000+0  15679-3 0  9994", "line2": "2 35681  97.7150 145.5721 0002745  82.3795 277.7726 14.74947467879129"}}, "geometry": {"type": "Point", "coordinates": [165.64338645419684, -68.15082971075775]}}, {"type": "Feature", "properties": {"norad_id": 35683, "name": "UK-DMC 2", "group": "dmc", "lat": -57.28499631100298, "lon": 132.567098237549, "alt_km": 651.1779372984656, "timestamp": "2025-12-11T05:00:25.977771+00:00", "meta": {"OBJECT_NAME": "UK-DMC 2", "OBJECT_ID": "2009-041C", "EPOCH": "2025-12-10T22:45:38.214144", "MEAN_MOTION": 14.75615969, "ECCENTRICITY": 0.00014141, "INCLINATION": 97.8563, "RA_OF_ASC_NODE": 119.9015, "ARG_OF_PERICENTER": 96.044, "MEAN_ANOMALY": 264.0931, "EPHEMERIS_TYPE": 0, "CLASSIFICATION_TYPE": "U", "NORAD_CAT_ID": 35683, "ELEMENT_SET_NO": 999, "REV_AT_EPOCH": 87880, "BSTAR": 0.00027596305, "MEAN_MOTION_DOT": 1.834e-05, "MEAN_MOTION_DDOT": 0}, "tle": {"line1": "1 35683U 09041C   25344.94835896  .00001834  00000+0  27596-3 0  9996", "line2": "2 35683  97.8563 119.9015 0001414  96.0440 264.0931 14.75615969878803"}}, "geometry": {"type": "Point", "coordinates": [132.567098237549, -57.28499631100298]}}, {"type": "Feature", "properties": {"norad_id": 40715, "name": "DMC3-FM1", "group": "dmc", "lat": -62.19315034785074, "lon": -132.74042651792848, "alt_km": 616.5407187102146, "timestamp": "2025-12-11T05:00:25.977782+00:00", "meta": {"OBJECT_NAME": "DMC3-FM1", "OBJECT_ID": "2015-032A", "EPOCH": "2025-12-10T22:49:27.448896", "MEAN_MOTION": 14.8543694, "ECCENTRICITY": 0.00048089, "INCLINATION": 97.6689, "RA_OF_ASC_NODE": 212.2088, "ARG_OF_PERICENTER": 329.211, "MEAN_ANOMALY": 30.8823, "EPHEMERIS_TYPE": 0, "CLASSIFICATION_TYPE": "U", "NORAD_CAT_ID": 40715, "ELEMENT_SET_NO": 999, "REV_AT_EPOCH": 56196, "BSTAR": 0.00017313739, "MEAN_MOTION_DOT": 1.441e-05, "MEAN_MOTION_DDOT": 0}, "tle": {"line1": "1 40715U 15032A   25344.95101214  .00001441  00000+0  17314-3 0  9997", "line2": "2 40715  97.6689 212.2088 0004808 329.2110  30.8823 14.85436940561960"}}, "geometry": {"type": "Point", "coordinates": [-132.74042651792848, -62.19315034785074]}}, {"type": "Feature", "properties": {"norad_id": 40716, "name": "DMC3-FM2", "group": "dmc", "lat": 3.225268983471779, "lon": 34.33493411822232, "alt_km": 618.3405585567161, "timestamp": "2025-12-11T05:00:25.977793+00:00", "meta": {"OBJECT_NAME": "DMC3-FM2", "OBJECT_ID": "2015-032B", "EPOCH": "2025-12-10T21:44:51.360000", "MEAN_MOTION": 14.8543514, "ECCENTRICITY": 0.00055226, "INCLINATION": 97.6745, "RA_OF_ASC_NODE": 213.608, "ARG_OF_PERICENTER": 333.2771, "MEAN_ANOMALY": 26.8159, "EPHEMERIS_TYPE": 0, "CLASSIFICATION_TYPE": "U", "NORAD_CAT_ID": 40716, "ELEMENT_SET_NO": 999, "REV_AT_EPOCH": 56195, "BSTAR": 0.00010944644, "MEAN_MOTION_DOT": 8.92e-06, "MEAN_MOTION_DDOT": 0}, "tle": {"line1": "1 40716U 15032B   25344.90615000  .00000892  00000+0  10945-3 0  9998", "line2": "2 40716  97.6745 213.6080 0005522 333.2771  26.8159 14.85435140561950"}}, "geometry": {"type": "Point", "coordinates": [34.33493411822232, 3.225268983471779]}}, {"type": "Feature", "properties": {"norad_id": 40717, "name": "DMC3-FM3", "group": "dmc", "lat": 60.2310311960928, "lon": -158.11441871245324, "alt_km": 606.2461428753095, "timestamp": "2025-12-11T05:00:25.977803+00:00", "meta": {"OBJECT_NAME": "DMC3-FM3", "OBJECT_ID": "2015-032C", "EPOCH": "2025-12-10T22:15:58.570272", "MEAN_MOTION": 14.85425365, "ECCENTRICITY": 0.00048117, "INCLINATION": 97.6801, "RA_OF_ASC_NODE": 215.2605, "ARG_OF_PERICENTER": 335.075, "MEAN_ANOMALY": 25.0232, "EPHEMERIS_TYPE": 0, "CLASSIFICATION_TYPE": "U", "NORAD_CAT_ID": 40717, "ELEMENT_SET_NO": 999, "REV_AT_EPOCH": 56196, "BSTAR": 0.00012742931, "MEAN_MOTION_DOT": 1.046e-05, "MEAN_MOTION_DDOT": 0}, "tle": {"line1": "1 40717U 15032C   25344.92776123  .00001046  00000+0  12743-3 0  9995", "line2": "2 40717  97.6801 215.2605 0004811 335.0750  25.0232 14.85425365561964"}}, "geometry": {"type": "Point", "coordinates": [-158.11441871245324, 60.2310311960928]}}]}